{
  "norad_id": 65743,
  "name": "STARLINK-35319",
  "history": [
    {
      "epoch": "2026-03-28T19:06:14.331744Z",
      "apogee_km": 475.67796120326875,
      "perigee_km": 474.64338738635615,
      "latitude_deg": 2.6679807721366256e-05,
      "longitude_deg": 131.03259577139417,
      "height_km": 476.00365604325674,
      "semi_major_axis_km": 6853.297674294812,
      "eccentricity": 7.548e-05,
      "inclination_deg": 53.1569,
      "raan_deg": 243.8036,
      "arg_perigee_deg": 83.8455,
      "mean_anomaly_deg": 276.2632,
      "mean_motion_rev_day": 15.30218218
    },
    {
      "epoch": "2026-03-29T02:56:30.526656Z",
      "apogee_km": 476.034606688796,
      "perigee_km": 474.3473173445482,
      "latitude_deg": 1.4583069648821828e-05,
      "longitude_deg": 11.622919621503417,
      "height_km": 475.82900780101556,
      "semi_major_axis_km": 6853.327962016672,
      "eccentricity": 0.0001231,
      "inclination_deg": 53.1567,
      "raan_deg": 242.2833,
      "arg_perigee_deg": 72.0632,
      "mean_anomaly_deg": 288.0503,
      "mean_motion_rev_day": 15.30208074
    },
    {
      "epoch": "2026-03-30T02:27:18.064224Z",
      "apogee_km": 475.721247036362,
      "perigee_km": 474.5322057798312,
      "latitude_deg": -1.3228271251689746e-05,
      "longitude_deg": 13.40907325172592,
      "height_km": 475.9437088069556,
      "semi_major_axis_km": 6853.263726408097,
      "eccentricity": 8.675e-05,
      "inclination_deg": 53.1587,
      "raan_deg": 237.7332,
      "arg_perigee_deg": 82.1189,
      "mean_anomaly_deg": 277.991,
      "mean_motion_rev_day": 15.30229588
    },
    {
      "epoch": "2026-03-30T10:17:33.397728Z",
      "apogee_km": 475.7844163730224,
      "perigee_km": 474.3932115327898,
      "latitude_deg": 1.0564307298362582e-05,
      "longitude_deg": -105.99137673586573,
      "height_km": 475.8899593696571,
      "semi_major_axis_km": 6853.225813952906,
      "eccentricity": 0.0001015,
      "inclination_deg": 53.1589,
      "raan_deg": 236.2185,
      "arg_perigee_deg": 81.9686,
      "mean_anomaly_deg": 278.143,
      "mean_motion_rev_day": 15.30242286
    },
    {
      "epoch": "2026-03-30T21:15:56.515392Z",
      "apogee_km": 476.18457472633054,
      "perigee_km": 474.31401147149245,
      "latitude_deg": 2.7817421746407744e-05,
      "longitude_deg": 86.83686432794222,
      "height_km": 475.95431580881876,
      "semi_major_axis_km": 6853.386293098912,
      "eccentricity": 0.00013647,
      "inclination_deg": 53.1569,
      "raan_deg": 234.0937,
      "arg_perigee_deg": 78.1147,
      "mean_anomaly_deg": 282.0007,
      "mean_motion_rev_day": 15.30188538
    },
    {
      "epoch": "2026-03-31T16:04:35.464224Z",
      "apogee_km": 476.01350549318704,
      "perigee_km": 474.46875406273466,
      "latitude_deg": 7.326184853595212e-06,
      "longitude_deg": 160.26113044019684,
      "height_km": 475.9761975104875,
      "semi_major_axis_km": 6853.378129777961,
      "eccentricity": 0.0001127,
      "inclination_deg": 53.1608,
      "raan_deg": 230.4528,
      "arg_perigee_deg": 77.7925,
      "mean_anomaly_deg": 282.3202,
      "mean_motion_rev_day": 15.30191272
    },
    {
      "epoch": "2026-04-01T09:19:10.498080Z",
      "apogee_km": 475.804602803486,
      "perigee_km": 474.48740181044286,
      "latitude_deg": 4.9666107488961974e-05,
      "longitude_deg": -102.42925898493118,
      "height_km": 475.77847070582936,
      "semi_major_axis_km": 6853.283002306965,
      "eccentricity": 9.61e-05,
      "inclination_deg": 53.1582,
      "raan_deg": 227.1165,
      "arg_perigee_deg": 66.1838,
      "mean_anomaly_deg": 293.9264,
      "mean_motion_rev_day": 15.30223132
    },
    {
      "epoch": "2026-04-02T16:40:14.148480Z",
      "apogee_km": 475.5390413809355,
      "perigee_km": 474.62454786498074,
      "latitude_deg": -2.224721679501499e-05,
      "longitude_deg": 139.94793827867494,
      "height_km": 475.91106016419985,
      "semi_major_axis_km": 6853.218794622958,
      "eccentricity": 6.672e-05,
      "inclination_deg": 53.1591,
      "raan_deg": 221.0465,
      "arg_perigee_deg": 81.2515,
      "mean_anomaly_deg": 278.8561,
      "mean_motion_rev_day": 15.30244637
    }
  ]
}